STARLINK-35713          
1 66278U 25247P   25326.50003471 -.00020688  00000+0 -36488-3 0  9994
2 66278  53.1589 332.8807 0001245  79.6724 235.0852 15.49309514  4684
STARLINK-35724          
1 66279U 25247Q   25326.50003471 -.00026705  00000+0 -47363-3 0  9995
2 66279  53.1588 332.8765 0001312  89.2272 227.4432 15.49314289  4311
STARLINK-35726          
1 66280U 25247R   25326.50003471 -.00008522  00000+0 -14538-3 0  9992
2 66280  53.1588 332.8846 0001199  96.8776 215.9707 15.49299874  4363
STARLINK-35727          
1 66281U 25247S   25326.50003471 -.00000590  00000+0 -25446-5 0  9992
2 66281  53.1589 332.8726 0001149  87.5781 231.0153 15.49298191  4365
STARLINK-35776          
1 66282U 25247T   25326.50003471  .00001400  00000+0  33236-4 0  9997
2 66282  53.1589 332.8686 0001229  86.3431 234.1551 15.49300581  4362
STARLINK-35774          
1 66283U 25247U   25326.50003471  .00074354  00000+0  13337-2 0  9994
2 66283  53.1588 332.8648 0001177  84.3452 238.0776 15.49278056  4366
STARLINK-35830          
1 66284U 25247V   25326.50003471  .00108188  00000+0  19315-2 0  9990
2 66284  53.1589 332.8605 0001390  99.2495 225.1155 15.49234187  4365
STARLINK-35819          
1 66285U 25247W   25326.50003471  .00086902  00000+0  15548-2 0  9994
2 66285  53.1589 332.8566 0001254  89.9891 236.2651 15.49279860  4313
STARLINK-35783          
1 66286U 25247X   25326.50003471  .00134135  00000+0  23865-2 0  9998
2 66286  53.1590 332.8518 0001269  83.2398 244.9758 15.49215140  4313
STARLINK-34884          
1 66287U 25247Y   25326.50003471 -.00014112  00000+0 -24616-3 0  9999
2 66287  53.1589 332.8484 0001349  85.4998 244.5959 15.49305202  4636
STARLINK-34896          
1 66288U 25247Z   25326.50003471 -.00022830  00000+0 -40352-3 0  9991
2 66288  53.1590 332.8444 0001296  84.0762 247.9212 15.49315732  4638
STARLINK-35802          
1 66289U 25247AA  25326.50003471 -.00080329  00000+0 -14495-2 0  9997
2 66289  53.1589 332.8401 0001127  88.4159 245.5085 15.49340921  4316
